{"type": "FeatureCollection", "features": [{"id": "0", "type": "Feature", "properties": {"contour_id": "flood_0001", "area_ha": 5.04, "pair_id": "flood_2019_07_amur__belogorsk", "layer": "flood", "aoi_name": "Белогорск — река Томь", "event_name": "Паводок в Приамурье, июль 2019", "date_peak": "2019-07-25"}, "geometry": {"type": "Polygon", "coordinates": [[[128.25620956861994, 50.85829054802491], [128.25625820025766, 50.85523328039791], [128.25711340693834, 50.855058869701296], [128.25739181028578, 50.855420356593676], [128.25880242164965, 50.85605882506041], [128.2587810403183, 50.857407620389566], [128.2572054699977, 50.85820696191102], [128.25620956861994, 50.85829054802491]]]}}, {"id": "1", "type": "Feature", "properties": {"contour_id": "flood_0002", "area_ha": 4.89, "pair_id": "flood_2019_07_amur__belogorsk", "layer": "flood", "aoi_name": "Белогорск — река Томь", "event_name": "Паводок в Приамурье, июль 2019", "date_peak": "2019-07-25"}, "geometry": {"type": "Polygon", "coordinates": [[[128.26371424956903, 50.941071955037756], [128.26343245133438, 50.94089032313715], [128.26357761158835, 50.94071138372365], [128.26329297405243, 50.94070958845469], [128.26330292093215, 50.94008015906546], [128.2630197087702, 50.93998844465874], [128.26331713014056, 50.939180974102946], [128.26404431490147, 50.93819635695147], [128.26532653217163, 50.93811450311586], [128.26532369824682, 50.93829434023384], [128.26503907535565, 50.938292549281044], [128.26503340522348, 50.93865222347711], [128.26559698956783, 50.93901547895369], [128.2660253462409, 50.93892824454917], [128.2660210992629, 50.9391980002284], [128.2663043126193, 50.93928970737311], [128.26630006720072, 50.9395594630524], [128.266014020821, 50.939647592998725], [128.2660041106972, 50.94027702281748], [128.26628591533358, 50.940458648557694], [128.26628025438342, 50.94081832272002], [128.26585046468693, 50.94099547648837], [128.26585329685233, 50.940815639432834], [128.26514453599341, 50.940631326786395], [128.26371424956903, 50.941071955037756]], [[128.26459653887392, 50.93927896544159], [128.26488116775877, 50.939280757497606], [128.26488683919231, 50.93892108335275], [128.26445848049835, 50.93900831357264], [128.26459653887392, 50.93927896544159]]]}}, {"id": "2", "type": "Feature", "properties": {"contour_id": "flood_0003", "area_ha": 4.04, "pair_id": "flood_2019_07_amur__belogorsk", "layer": "flood", "aoi_name": "Белогорск — река Томь", "event_name": "Паводок в Приамурье, июль 2019", "date_peak": "2019-07-25"}, "geometry": {"type": "Polygon", "coordinates": [[[128.28721775109315, 50.93986886430736], [128.2872246251146, 50.93941926945118], [128.28736419165412, 50.939599975945534], [128.28779251377668, 50.939512661564166], [128.28765569372817, 50.93915211760156], [128.2872259998977, 50.93932935047568], [128.28723837262837, 50.9385200796324], [128.28766531115073, 50.938522684655396], [128.28795543018714, 50.93816474444777], [128.28796641648808, 50.93744539233449], [128.28825378105424, 50.93726728933588], [128.28825927178403, 50.93690761321172], [128.28769141384228, 50.93681422345101], [128.288552120269, 50.936369833277936], [128.28913779680727, 50.935294270977465], [128.28985342065093, 50.9350288427714], [128.28985752912646, 50.93475908548289], [128.2904294716656, 50.93458270732996], [128.29072228030316, 50.93404492158131], [128.29115054512582, 50.933957594570636], [128.29099867536846, 50.934586164602344], [128.29057040448183, 50.934673491022345], [128.2909945735198, 50.93485592196552], [128.29083722809054, 50.935844168091336], [128.29026527155182, 50.936020548147404], [128.29041168226482, 50.93575165566828], [128.28999298443975, 50.935209546247684], [128.28984657305108, 50.93547843822391], [128.28941966220086, 50.93547584128571], [128.28912545846424, 50.936103542603966], [128.28869579837973, 50.936280781113965], [128.2888230172615, 50.937270757342894], [128.2886793363223, 50.93735980963703], [128.2889639550029, 50.937361542952445], [128.28910215115073, 50.93763216647375], [128.28867522064957, 50.93762956673587], [128.28852330509292, 50.93825813297138], [128.28909255343072, 50.93826159971269], [128.28922664028778, 50.93880198013054], [128.28908295536598, 50.938891032882104], [128.28936621278766, 50.93898268427501], [128.28936073019182, 50.939342360357024], [128.28922115665046, 50.939161656212846], [128.28822495287403, 50.939155588615264], [128.2879320828003, 50.93969336738694], [128.28721775109315, 50.93986886430736]], [[128.28894475567182, 50.93862040938175], [128.28908569770536, 50.93871119484079], [128.2890870688645, 50.938621275818015], [128.28894475567182, 50.93862040938175]], [[128.28855074818816, 50.936459752325156], [128.2886916829604, 50.93655053826389], [128.2886930547739, 50.93646061921534], [128.28855074818816, 50.936459752325156]]]}}, {"id": "3", "type": "Feature", "properties": {"contour_id": "flood_0004", "area_ha": 2.54, "pair_id": "flood_2019_07_amur__belogorsk", "layer": "flood", "aoi_name": "Белогорск — река Томь", "event_name": "Паводок в Приамурье, июль 2019", "date_peak": "2019-07-25"}, "geometry": {"type": "Polygon", "coordinates": [[[128.29158203554016, 50.83054275939823], [128.29116289188585, 50.83009056890713], [128.29031372099013, 50.82990554929794], [128.29032053841632, 50.82945594562337], [128.2914686383777, 50.828653561385124], [128.29260310881278, 50.82875037358994], [128.292452973778, 50.82928903748595], [128.29287483998837, 50.82956138185619], [128.29258951797968, 50.8296495814564], [128.2925772856348, 50.83045886841484], [128.29158203554016, 50.83054275939823]]]}}, {"id": "4", "type": "Feature", "properties": {"contour_id": "flood_0005", "area_ha": 1.68, "pair_id": "flood_2019_07_amur__belogorsk", "layer": "flood", "aoi_name": "Белогорск — река Томь", "event_name": "Паводок в Приамурье, июль 2019", "date_peak": "2019-07-25"}, "geometry": {"type": "Polygon", "coordinates": [[[128.6074331931106, 50.90910062429393], [128.60743697491912, 50.908651002790805], [128.60715327300218, 50.908560121737985], [128.6072977719827, 50.908290827280304], [128.60659042032808, 50.90783881174713], [128.60631430985694, 50.90684868551], [128.6056085091627, 50.90621681533552], [128.6057552882676, 50.90567774969512], [128.6051940128872, 50.904776584056926], [128.60534155242345, 50.904147594454216], [128.60576819940303, 50.90414903584807], [128.60548072807487, 50.90450777249202], [128.60590434157407, 50.904868910780465], [128.6058959901094, 50.90585807850362], [128.60618043186682, 50.905859038278386], [128.60631810214002, 50.906399063892785], [128.6066025472085, 50.906400022646494], [128.60645805013607, 50.90666931633537], [128.60674249685627, 50.906670274751754], [128.60702164387638, 50.907300702753474], [128.60687638899836, 50.90765992123265], [128.60730231157586, 50.90775128140584], [128.60715781430923, 50.90802057589791], [128.6078644186988, 50.90856251230861], [128.6074331931106, 50.90910062429393]], [[128.60645501736667, 50.90702901362124], [128.60659648389267, 50.907119417241645], [128.60659724182074, 50.90702949292217], [128.60645501736667, 50.90702901362124]]]}}, {"id": "5", "type": "Feature", "properties": {"contour_id": "flood_0006", "area_ha": 1.64, "pair_id": "flood_2019_07_amur__belogorsk", "layer": "flood", "aoi_name": "Белогорск — река Томь", "event_name": "Паводок в Приамурье, июль 2019", "date_peak": "2019-07-25"}, "geometry": {"type": "Polygon", "coordinates": [[[128.68377359046664, 50.893954855558114], [128.68292352856804, 50.89350291528691], [128.68292597087967, 50.89314321418277], [128.68221933774453, 50.89251180426444], [128.68179892078837, 50.891611389569704], [128.68166716237738, 50.89008227179898], [128.68209490860121, 50.88990358341494], [128.6821016415264, 50.888914404790775], [128.68181975106228, 50.888553928808236], [128.6821065379608, 50.88819500204875], [128.68253304275945, 50.888196162669544], [128.68224503555916, 50.88873494116778], [128.68252815289415, 50.888915565441145], [128.6826666574681, 50.88945550400571], [128.68223891753377, 50.88963419450977], [128.6823780324178, 50.8900842080278], [128.68208327810882, 50.89161216427634], [128.6826446597703, 50.892692815112774], [128.68306998509703, 50.89287382441188], [128.68306815421752, 50.89314360025836], [128.6833525209026, 50.89314437189006], [128.68335069163763, 50.893414147731335], [128.6837748083745, 50.893775005008074], [128.68377359046664, 50.893954855558114]]]}}, {"id": "6", "type": "Feature", "properties": {"contour_id": "flood_0007", "area_ha": 1.61, "pair_id": "flood_2019_07_amur__belogorsk", "layer": "flood", "aoi_name": "Белогорск — река Томь", "event_name": "Паводок в Приамурье, июль 2019", "date_peak": "2019-07-25"}, "geometry": {"type": "Polygon", "coordinates": [[[128.26250745461132, 50.95437358651933], [128.26193943712224, 50.95428007114252], [128.26167323933245, 50.95310933435137], [128.26138995150308, 50.95301761587931], [128.26168891126625, 50.952120233466275], [128.26098142171472, 50.95184597699272], [128.26098997777643, 50.95130646740707], [128.26127325444097, 50.951398186829415], [128.26156223178535, 50.951130232447795], [128.2615693560701, 50.95068064101574], [128.26114230864317, 50.95067794013353], [128.2615836040912, 50.949781458045074], [128.26157078090512, 50.95059072272508], [128.26199497954437, 50.9507732586345], [128.26198928339727, 50.9511329318117], [128.26170315771108, 50.95122105069427], [128.2616988838544, 50.951490805540786], [128.26141418060476, 50.95148900542144], [128.26140847982984, 50.951848678507304], [128.26226117269323, 50.95194399513741], [128.2622455130043, 50.952933096179905], [128.2619508313459, 50.95356072516322], [128.2622355472874, 50.95356252402654], [128.26208464533704, 50.95410113419182], [128.26250745461132, 50.95437358651933]]]}}, {"id": "7", "type": "Feature", "properties": {"contour_id": "flood_0008", "area_ha": 1.61, "pair_id": "flood_2019_07_amur__belogorsk", "layer": "flood", "aoi_name": "Белогорск — река Томь", "event_name": "Паводок в Приамурье, июль 2019", "date_peak": "2019-07-25"}, "geometry": {"type": "Polygon", "coordinates": [[[128.34724592664708, 50.95253982415475], [128.34696625241608, 50.95217855296976], [128.3471161677786, 50.9516398294361], [128.34683649989347, 50.9512785579084], [128.34684406185232, 50.95073903843747], [128.34712876568, 50.95074063029544], [128.34684784274444, 50.95046927868291], [128.34727993382745, 50.95011198646381], [128.3465719662903, 50.94983824670489], [128.34671935745803, 50.949479363320215], [128.3462923133185, 50.94947697381823], [128.34615375002448, 50.94920641719469], [128.34742983869864, 50.949573262299175], [128.34770950108495, 50.94993453249071], [128.34739961784848, 50.95173134056218], [128.34782542428135, 50.95182364600821], [128.34781661488796, 50.95245308539141], [128.34724592664708, 50.95253982415475]]]}}, {"id": "8", "type": "Feature", "properties": {"contour_id": "flood_0009", "area_ha": 1.49, "pair_id": "flood_2019_07_amur__belogorsk", "layer": "flood", "aoi_name": "Белогорск — река Томь", "event_name": "Паводок в Приамурье, июль 2019", "date_peak": "2019-07-25"}, "geometry": {"type": "Polygon", "coordinates": [[[128.25657388669748, 50.942555484854395], [128.25629497673717, 50.94219399922371], [128.2563251013279, 50.940305714312586], [128.2568972372462, 50.94012950138684], [128.25716754280558, 50.941030495799744], [128.2575930694501, 50.941123129206694], [128.25758877334758, 50.94139288427191], [128.25685996858203, 50.94246737822527], [128.25657388669748, 50.942555484854395]]]}}, {"id": "9", "type": "Feature", "properties": {"contour_id": "flood_0010", "area_ha": 1.43, "pair_id": "flood_2019_07_amur__belogorsk", "layer": "flood", "aoi_name": "Белогорск — река Томь", "event_name": "Паводок в Приамурье, июль 2019", "date_peak": "2019-07-25"}, "geometry": {"type": "Polygon", "coordinates": [[[128.60697242314507, 50.913145780630835], [128.60683321058292, 50.91278560482277], [128.6071161804299, 50.91296641087764], [128.6079756792592, 50.91224988550185], [128.60784099552833, 50.91135016524844], [128.60755954499402, 50.91098951237984], [128.60757088723994, 50.909640648183846], [128.6078553521068, 50.9096416039289], [128.60799305268503, 50.91018162728514], [128.60827752086357, 50.91018258200889], [128.60813302161168, 50.910451877591115], [128.60841749144222, 50.91045283197746], [128.60813000134323, 50.91081157471479], [128.60841447336617, 50.9108125291133], [128.60840994613596, 50.91135207477504], [128.6081232055127, 50.91162089316109], [128.6084061733377, 50.91180169612128], [128.60840315502946, 50.912161393173065], [128.6081141439173, 50.91269998424634], [128.60697242314507, 50.913145780630835]], [[128.6076874186459, 50.91269855125322], [128.60782890469287, 50.91278895333581], [128.60782966039915, 50.91269902909087], [128.6076874186459, 50.91269855125322]]]}}, {"id": "10", "type": "Feature", "properties": {"contour_id": "flood_0011", "area_ha": 1.2, "pair_id": "flood_2019_07_amur__belogorsk", "layer": "flood", "aoi_name": "Белогорск — река Томь", "event_name": "Паводок в Приамурье, июль 2019", "date_peak": "2019-07-25"}, "geometry": {"type": "Polygon", "coordinates": [[[128.60548452807083, 50.90405815073857], [128.60535903753993, 50.90207933400467], [128.6057962962191, 50.900821833722524], [128.6063666347767, 50.90064390409919], [128.60664952947312, 50.900824711493925], [128.60636511837288, 50.90082375292961], [128.60621912038155, 50.90127289543151], [128.60593470656568, 50.901271935812694], [128.60592407952709, 50.9025308773064], [128.60563737909192, 50.90279969008422], [128.60592028397127, 50.90298049920189], [128.60591117424022, 50.90405959160817], [128.60548452807083, 50.90405815073857]]]}}, {"id": "11", "type": "Feature", "properties": {"contour_id": "flood_0012", "area_ha": 1.12, "pair_id": "flood_2019_07_amur__belogorsk", "layer": "flood", "aoi_name": "Белогорск — река Томь", "event_name": "Паводок в Приамурье, июль 2019", "date_peak": "2019-07-25"}, "geometry": {"type": "Polygon", "coordinates": [[[128.66971471812602, 50.91154158353938], [128.6700017400211, 50.9111826883762], [128.66929628453005, 50.910371352229035], [128.66916297333583, 50.90911200069164], [128.67002081456707, 50.90848494120437], [128.67073196403777, 50.90848694886618], [128.66973380950617, 50.908843836612256], [128.66944616312855, 50.90929265619393], [128.6697268096745, 50.90983301063168], [128.67015287611326, 50.90992414175201], [128.67000364760779, 50.91091291371566], [128.6702849455977, 50.91136334180931], [128.66971471812602, 50.91154158353938]]]}}, {"id": "12", "type": "Feature", "properties": {"contour_id": "flood_0013", "area_ha": 1.09, "pair_id": "flood_2019_07_amur__belogorsk", "layer": "flood", "aoi_name": "Белогорск — река Томь", "event_name": "Паводок в Приамурье, июль 2019", "date_peak": "2019-07-25"}, "geometry": {"type": "Polygon", "coordinates": [[[128.2768257937377, 50.930812226705065], [128.27682858255375, 50.930632388895575], [128.27754141784436, 50.930546873752576], [128.2775455968789, 50.93027711698134], [128.27697505333995, 50.930363513264574], [128.2774074893019, 50.93000647980811], [128.27826120869227, 50.93001175954311], [128.27940644859137, 50.92956919463136], [128.28068424249597, 50.92975692791973], [128.28011093491938, 50.93002317755955], [128.27983052731537, 50.929751665917316], [128.27940366982122, 50.92974903257583], [128.27883035509532, 50.93001527589934], [128.27882618353098, 50.93028503275903], [128.27796828246613, 50.93054951393059], [128.277964105836, 50.930819270714295], [128.2768257937377, 50.930812226705065]]]}}, {"id": "13", "type": "Feature", "properties": {"contour_id": "flood_0014", "area_ha": 1.07, "pair_id": "flood_2019_07_amur__belogorsk", "layer": "flood", "aoi_name": "Белогорск — река Томь", "event_name": "Паводок в Приамурье, июль 2019", "date_peak": "2019-07-25"}, "geometry": {"type": "Polygon", "coordinates": [[[128.30890332641673, 50.93640211824408], [128.30890732488209, 50.93613235992139], [128.30848173993652, 50.936039913202684], [128.30820780132908, 50.935318871992216], [128.3077822252049, 50.93522642274579], [128.3079352057035, 50.934507910634395], [128.30694845289972, 50.93387256700441], [128.30709342455123, 50.93369357255566], [128.30680882715401, 50.93369188351073], [128.30681150062475, 50.933512044625935], [128.3072383950847, 50.9335145779171], [128.30751631455627, 50.93396586317962], [128.30836744447066, 50.93415076201053], [128.30807884125394, 50.93441883442754], [128.3085044106215, 50.934511282579216], [128.30848707439324, 50.93568023544577], [128.30933557550543, 50.93604496619207], [128.3093315795301, 50.936314724543166], [128.30890332641673, 50.93640211824408]]]}}, {"id": "14", "type": "Feature", "properties": {"contour_id": "flood_0015", "area_ha": 0.95, "pair_id": "flood_2019_07_amur__belogorsk", "layer": "flood", "aoi_name": "Белогорск — река Томь", "event_name": "Паводок в Приамурье, июль 2019", "date_peak": "2019-07-25"}, "geometry": {"type": "Polygon", "coordinates": [[[128.38315709728417, 50.94994727784348], [128.38288073146694, 50.94931632989991], [128.3828938289555, 50.94832720359151], [128.38261271145993, 50.948055937229995], [128.38289978211495, 50.94787760066757], [128.3827598197265, 50.94769700727873], [128.3831939907946, 50.947159739785334], [128.3831987508201, 50.946800057356405], [128.38434935571738, 50.94590685945638], [128.38463403209363, 50.945908359789556], [128.38304688759897, 50.947518670334084], [128.38302665131718, 50.949047320268214], [128.38344655686203, 50.949589098894684], [128.38315709728417, 50.94994727784348]]]}}, {"id": "15", "type": "Feature", "properties": {"contour_id": "flood_0016", "area_ha": 0.9, "pair_id": "flood_2019_07_amur__belogorsk", "layer": "flood", "aoi_name": "Белогорск — река Томь", "event_name": "Паводок в Приамурье, июль 2019", "date_peak": "2019-07-25"}, "geometry": {"type": "Polygon", "coordinates": [[[128.6659843182803, 50.91602730413331], [128.66684489785908, 50.91504056989225], [128.66769903723724, 50.91495307719704], [128.6675593503025, 50.91459297305219], [128.66813154192886, 50.914144967568056], [128.66785280836075, 50.91333483519306], [128.66842050900402, 50.913516302013775], [128.66841411917005, 50.914415550286485], [128.66784192691998, 50.9148635571334], [128.6678393664431, 50.91522325635474], [128.66727100612013, 50.915131711526314], [128.66698393882095, 50.91549059964754], [128.6665565426459, 50.91557930653979], [128.66655461481275, 50.915849080889444], [128.6659843182803, 50.91602730413331]]]}}, {"id": "16", "type": "Feature", "properties": {"contour_id": "flood_0017", "area_ha": 0.81, "pair_id": "flood_2019_07_amur__belogorsk", "layer": "flood", "aoi_name": "Белогорск — река Томь", "event_name": "Паводок в Приамурье, июль 2019", "date_peak": "2019-07-25"}, "geometry": {"type": "Polygon", "coordinates": [[[128.31036496670046, 50.93380286623255], [128.31022798817034, 50.933442347754486], [128.31051391383488, 50.93335410894528], [128.31051923210723, 50.93299443086812], [128.3109447934275, 50.93308687011689], [128.310810470414, 50.93254651319927], [128.31166689707473, 50.932371709812685], [128.31180521074336, 50.93264230714876], [128.31136637265163, 50.93344906641954], [128.31065355298207, 50.93353478807125], [128.31036496670046, 50.93380286623255]], [[128.31123337191823, 50.932818790459585], [128.31137301227872, 50.932999468746374], [128.31137566808184, 50.93281962966717], [128.31123337191823, 50.932818790459585]]]}}, {"id": "17", "type": "Feature", "properties": {"contour_id": "flood_0018", "area_ha": 0.8, "pair_id": "flood_2019_07_amur__belogorsk", "layer": "flood", "aoi_name": "Белогорск — река Томь", "event_name": "Паводок в Приамурье, июль 2019", "date_peak": "2019-07-25"}, "geometry": {"type": "Polygon", "coordinates": [[[128.65273569598412, 50.89944212843217], [128.65245196122788, 50.899351357246324], [128.6527430532, 50.89845295437862], [128.65402217861578, 50.89854667887238], [128.6544507733488, 50.89827816746374], [128.65444944229046, 50.898458017342115], [128.65473384052, 50.89845885874468], [128.65373644605515, 50.898725685591764], [128.65359157736947, 50.89908496345164], [128.65273569598412, 50.89944212843217]]]}}, {"id": "18", "type": "Feature", "properties": {"contour_id": "flood_0019", "area_ha": 0.76, "pair_id": "flood_2019_07_amur__belogorsk", "layer": "flood", "aoi_name": "Белогорск — река Томь", "event_name": "Паводок в Приамурье, июль 2019", "date_peak": "2019-07-25"}, "geometry": {"type": "Polygon", "coordinates": [[[128.30845106468573, 50.93810805986469], [128.30845506601068, 50.937838301646956], [128.30873968881585, 50.93783998677773], [128.3090309748981, 50.937392074103286], [128.30903364015015, 50.937212235248715], [128.30846706961603, 50.937029026917195], [128.30861471220567, 50.936670191839866], [128.30974785022715, 50.937036604326046], [128.30988217334075, 50.93757696205359], [128.30945657326887, 50.93748451885141], [128.30916529067883, 50.93793243259409], [128.30845106468573, 50.93810805986469]], [[128.30903497276591, 50.937122315819316], [128.30917594965575, 50.9372130771884], [128.3091772819971, 50.93712315775631], [128.30903497276591, 50.937122315819316]]]}}, {"id": "19", "type": "Feature", "properties": {"contour_id": "flood_0020", "area_ha": 0.74, "pair_id": "flood_2019_07_amur__belogorsk", "layer": "flood", "aoi_name": "Белогорск — река Томь", "event_name": "Паводок в Приамурье, июль 2019", "date_peak": "2019-07-25"}, "geometry": {"type": "Polygon", "coordinates": [[[128.63059347925568, 50.89415840369223], [128.63059632470575, 50.8937987045989], [128.6301719075757, 50.893527579805735], [128.63031765071207, 50.8930784062269], [128.63159303553803, 50.89362200006305], [128.63158877888398, 50.89416154877155], [128.63059347925568, 50.89415840369223]], [[128.63130724751764, 50.893800951921314], [128.63144872237666, 50.89389132565033], [128.63144943209096, 50.89380140086631], [128.63130724751764, 50.893800951921314]]]}}, {"id": "20", "type": "Feature", "properties": {"contour_id": "flood_0021", "area_ha": 0.74, "pair_id": "flood_2019_07_amur__belogorsk", "layer": "flood", "aoi_name": "Белогорск — река Томь", "event_name": "Паводок в Приамурье, июль 2019", "date_peak": "2019-07-25"}, "geometry": {"type": "Polygon", "coordinates": [[[128.6488089757133, 50.911030941721705], [128.64866944624734, 50.91067081505296], [128.64909818335406, 50.91040232413713], [128.64924582548463, 50.909683353845026], [128.64953096722923, 50.90959428333984], [128.64939008535418, 50.909414006884795], [128.6501032699559, 50.90914636604377], [128.6499644104753, 50.90869631606068], [128.65053333144036, 50.908698020267664], [128.6503870595653, 50.90923714289364], [128.64981610788806, 50.90950521213478], [128.6498127342366, 50.909954835729685], [128.6488089757133, 50.911030941721705]]]}}, {"id": "21", "type": "Feature", "properties": {"contour_id": "flood_0022", "area_ha": 0.73, "pair_id": "flood_2019_07_amur__belogorsk", "layer": "flood", "aoi_name": "Белогорск — река Томь", "event_name": "Паводок в Приамурье, июль 2019", "date_peak": "2019-07-25"}, "geometry": {"type": "Polygon", "coordinates": [[[128.26047728657207, 50.8579579532181], [128.2603423324166, 50.857507454414176], [128.26077421485485, 50.857150475817825], [128.26120182830684, 50.85706325477741], [128.2619078898123, 50.8573375083575], [128.2617587262497, 50.85778620850565], [128.26047728657207, 50.8579579532181]]]}}, {"id": "22", "type": "Feature", "properties": {"contour_id": "flood_0023", "area_ha": 0.71, "pair_id": "flood_2019_07_amur__belogorsk", "layer": "flood", "aoi_name": "Белогорск — река Томь", "event_name": "Паводок в Приамурье, июль 2019", "date_peak": "2019-07-25"}, "geometry": {"type": "Polygon", "coordinates": [[[128.66072488944147, 50.9154725808923], [128.66044169612442, 50.91529190442245], [128.66087106183988, 50.914933445703184], [128.6605891793893, 50.9145729200874], [128.66059768218133, 50.91340389827314], [128.66088282515923, 50.913314800104565], [128.66088086468142, 50.913584574402485], [128.66116600822764, 50.913495475546185], [128.66130368447187, 50.91412536159065], [128.6611594785994, 50.91439472315527], [128.66101657757613, 50.914484235026514], [128.66087432953753, 50.914483821971245], [128.6611529486362, 50.91529397062447], [128.66072488944147, 50.9154725808923]], [[128.66073273530583, 50.914393483993436], [128.66087432953753, 50.914483821971245], [128.660874983067, 50.91439389722066], [128.66073273530583, 50.914393483993436]]]}}, {"id": "23", "type": "Feature", "properties": {"contour_id": "flood_0024", "area_ha": 0.68, "pair_id": "flood_2019_07_amur__belogorsk", "layer": "flood", "aoi_name": "Белогорск — река Томь", "event_name": "Паводок в Приамурье, июль 2019", "date_peak": "2019-07-25"}, "geometry": {"type": "Polygon", "coordinates": [[[128.68027123095322, 50.907074633186944], [128.67886072906313, 50.905362154037746], [128.6784340675909, 50.90536097971783], [128.67787015026394, 50.90464001112587], [128.6784384039485, 50.90473150433182], [128.6784365455286, 50.90500127950564], [128.67942837591826, 50.905543567487506], [128.6797078816849, 50.90626374854492], [128.6804153038189, 50.90680524744208], [128.68027123095322, 50.907074633186944]]]}}, {"id": "24", "type": "Feature", "properties": {"contour_id": "flood_0025", "area_ha": 0.62, "pair_id": "flood_2019_07_amur__belogorsk", "layer": "flood", "aoi_name": "Белогорск — река Томь", "event_name": "Паводок в Приамурье, июль 2019", "date_peak": "2019-07-25"}, "geometry": {"type": "Polygon", "coordinates": [[[128.29675562961143, 50.82643731918111], [128.29562120619724, 50.82634054750211], [128.29548600138088, 50.82589008592716], [128.29577264783174, 50.825711958172235], [128.2967650861613, 50.825807872777], [128.29675562961143, 50.82643731918111]]]}}, {"id": "25", "type": "Feature", "properties": {"contour_id": "flood_0026", "area_ha": 0.61, "pair_id": "flood_2019_07_amur__belogorsk", "layer": "flood", "aoi_name": "Белогорск — река Томь", "event_name": "Паводок в Приамурье, июль 2019", "date_peak": "2019-07-25"}, "geometry": {"type": "Polygon", "coordinates": [[[128.35518924360957, 50.83109144437272], [128.35476947847567, 50.830639480182654], [128.35520163245988, 50.83019222512361], [128.35576957327805, 50.83019536209939], [128.35590042083578, 50.831005443354385], [128.35518924360957, 50.83109144437272]]]}}, {"id": "26", "type": "Feature", "properties": {"contour_id": "flood_0027", "area_ha": 0.6, "pair_id": "flood_2019_07_amur__belogorsk", "layer": "flood", "aoi_name": "Белогорск — река Томь", "event_name": "Паводок в Приамурье, июль 2019", "date_peak": "2019-07-25"}, "geometry": {"type": "Polygon", "coordinates": [[[128.647935199923, 50.91372611148405], [128.6479372352502, 50.91345633756076], [128.64765206684814, 50.91354540406149], [128.6475152558639, 50.91282557758437], [128.6478031348256, 50.91237681277523], [128.6480876176694, 50.9123776705349], [128.64809168633485, 50.91183812254162], [128.6485217920411, 50.911389784470266], [128.64851705112977, 50.912019257201855], [128.64794198422516, 50.91282686502413], [128.64793859211758, 50.91327648827158], [128.64836193653838, 50.91372739740527], [128.647935199923, 50.91372611148405]]]}}, {"id": "27", "type": "Feature", "properties": {"contour_id": "flood_0028", "area_ha": 0.59, "pair_id": "flood_2019_07_amur__belogorsk", "layer": "flood", "aoi_name": "Белогорск — река Томь", "event_name": "Паводок в Приамурье, июль 2019", "date_peak": "2019-07-25"}, "geometry": {"type": "Polygon", "coordinates": [[[128.5962077081508, 50.92425996271658], [128.59621782726853, 50.92309095138112], [128.59707535033664, 50.922644280215614], [128.5970699133226, 50.92327374800203], [128.5967861429842, 50.923182841830666], [128.59649692892236, 50.92372140266433], [128.5964945953629, 50.92399117451197], [128.5969214233496, 50.923992648643406], [128.5962077081508, 50.92425996271658]]]}}, {"id": "28", "type": "Feature", "properties": {"contour_id": "flood_0029", "area_ha": 0.57, "pair_id": "flood_2019_07_amur__belogorsk", "layer": "flood", "aoi_name": "Белогорск — река Томь", "event_name": "Паводок в Приамурье, июль 2019", "date_peak": "2019-07-25"}, "geometry": {"type": "Polygon", "coordinates": [[[128.44692465876346, 50.81870252154872], [128.44664287879496, 50.818521328223724], [128.44693421831704, 50.817893208942834], [128.44792574987198, 50.818077761995745], [128.44763654412145, 50.81852603651356], [128.44692465876346, 50.81870252154872]]]}}, {"id": "29", "type": "Feature", "properties": {"contour_id": "flood_0030", "area_ha": 0.56, "pair_id": "flood_2019_07_amur__belogorsk", "layer": "flood", "aoi_name": "Белогорск — река Томь", "event_name": "Паводок в Приамурье, июль 2019", "date_peak": "2019-07-25"}, "geometry": {"type": "Polygon", "coordinates": [[[128.37029049132178, 50.93288240567612], [128.37015548058534, 50.93234211461484], [128.3707331600907, 50.93171573881915], [128.37073801360506, 50.93135605628522], [128.37159904431778, 50.93082112986791], [128.37159540924122, 50.93109089183987], [128.37102017476732, 50.931537430762916], [128.37101411053993, 50.93198703393709], [128.37072951988955, 50.93198550070477], [128.37043764540158, 50.932523490482666], [128.37057508742177, 50.9328839399976], [128.37029049132178, 50.93288240567612]]]}}, {"id": "30", "type": "Feature", "properties": {"contour_id": "flood_0031", "area_ha": 0.56, "pair_id": "flood_2019_07_amur__belogorsk", "layer": "flood", "aoi_name": "Белогорск — река Томь", "event_name": "Паводок в Приамурье, июль 2019", "date_peak": "2019-07-25"}, "geometry": {"type": "Polygon", "coordinates": [[[128.300329205062, 50.929246795849934], [128.29962318200566, 50.92888285349059], [128.29948900193045, 50.92834248373164], [128.29978301643058, 50.9277147547268], [128.30020311120464, 50.92816691052263], [128.3001923172671, 50.92888626568025], [128.30090104068884, 50.929070365819314], [128.3008983448504, 50.929250204616025], [128.300329205062, 50.929246795849934]]]}}, {"id": "31", "type": "Feature", "properties": {"contour_id": "flood_0032", "area_ha": 0.55, "pair_id": "flood_2019_07_amur__belogorsk", "layer": "flood", "aoi_name": "Белогорск — река Томь", "event_name": "Паводок в Приамурье, июль 2019", "date_peak": "2019-07-25"}, "geometry": {"type": "Polygon", "coordinates": [[[128.6609788516318, 50.900095844084575], [128.6608438331933, 50.89910625628574], [128.66056008461703, 50.899015504773374], [128.66056335345797, 50.898565879823174], [128.66014002774605, 50.89811501379276], [128.66056727595645, 50.89802632983677], [128.66070424601176, 50.89874614315204], [128.66084840573643, 50.898476781337024], [128.66113280427018, 50.898477607152344], [128.6609860343756, 50.8991066692892], [128.66126847950352, 50.89937726974542], [128.6612652173588, 50.899826894665566], [128.6609788516318, 50.900095844084575]]]}}, {"id": "32", "type": "Feature", "properties": {"contour_id": "flood_0033", "area_ha": 0.55, "pair_id": "flood_2019_07_amur__belogorsk", "layer": "flood", "aoi_name": "Белогорск — река Томь", "event_name": "Паводок в Приамурье, июль 2019", "date_peak": "2019-07-25"}, "geometry": {"type": "Polygon", "coordinates": [[[128.3624540750189, 50.80855920657367], [128.36203076519894, 50.808377034431565], [128.3621788069159, 50.80792819840649], [128.36289084265792, 50.80775223070787], [128.36331415022664, 50.80793439974045], [128.36330926098086, 50.808294089407006], [128.3624540750189, 50.80855920657367]]]}}, {"id": "33", "type": "Feature", "properties": {"contour_id": "flood_0034", "area_ha": 0.54, "pair_id": "flood_2019_07_amur__belogorsk", "layer": "flood", "aoi_name": "Белогорск — река Томь", "event_name": "Паводок в Приамурье, июль 2019", "date_peak": "2019-07-25"}, "geometry": {"type": "Polygon", "coordinates": [[[128.2620106433459, 50.94978415727994], [128.26187256953654, 50.94951350277234], [128.26231241640386, 50.94870693597806], [128.26217292040315, 50.94852620011971], [128.26245760560235, 50.94852799831505], [128.26217861460424, 50.948166526766194], [128.2628917443248, 50.948081102540016], [128.2630298199087, 50.948351755915844], [128.26260137095045, 50.94843897880768], [128.26259283441584, 50.94897848885542], [128.26230387644284, 50.94924644596584], [128.26258145196084, 50.94969783550615], [128.2620106433459, 50.94978415727994]], [[128.26201491513828, 50.94951440233521], [128.26215583709848, 50.9496052200438], [128.26215726074736, 50.94951530172462], [128.26201491513828, 50.94951440233521]], [[128.2623109930953, 50.94879685431292], [128.262451913481, 50.94888767166874], [128.2624533365223, 50.94879775333246], [128.2623109930953, 50.94879685431292]]]}}, {"id": "34", "type": "Feature", "properties": {"contour_id": "flood_0035", "area_ha": 0.52, "pair_id": "flood_2019_07_amur__belogorsk", "layer": "flood", "aoi_name": "Белогорск — река Томь", "event_name": "Паводок в Приамурье, июль 2019", "date_peak": "2019-07-25"}, "geometry": {"type": "Polygon", "coordinates": [[[128.59370859892928, 50.91714708546183], [128.59342800668264, 50.91669647503428], [128.59343349155392, 50.91606700681778], [128.5937195610804, 50.91588814901408], [128.59329359120463, 50.91579673931023], [128.59329594258966, 50.91552696718854], [128.5935804428452, 50.91552795779327], [128.59358357577602, 50.915168261598765], [128.59415413619774, 50.91499039258524], [128.5937234759436, 50.9154385287876], [128.59385633325647, 50.91651811215876], [128.5937117310528, 50.91678738936193], [128.59399389156638, 50.91705815105753], [128.59370859892928, 50.91714708546183]]]}}, {"id": "35", "type": "Feature", "properties": {"contour_id": "flood_0036", "area_ha": 0.52, "pair_id": "flood_2019_07_amur__belogorsk", "layer": "flood", "aoi_name": "Белогорск — река Томь", "event_name": "Паводок в Приамурье, июль 2019", "date_peak": "2019-07-25"}, "geometry": {"type": "Polygon", "coordinates": [[[128.32837371388393, 50.92842226292112], [128.3282379065016, 50.92797184484063], [128.3273971830667, 50.92706773138692], [128.32839054722595, 50.92725330376188], [128.3281021017025, 50.927521426577435], [128.32852894322102, 50.92752388183492], [128.32880056367037, 50.92842471721675], [128.32837371388393, 50.92842226292112]]]}}, {"id": "36", "type": "Feature", "properties": {"contour_id": "flood_0037", "area_ha": 0.52, "pair_id": "flood_2019_07_amur__belogorsk", "layer": "flood", "aoi_name": "Белогорск — река Томь", "event_name": "Паводок в Приамурье, июль 2019", "date_peak": "2019-07-25"}, "geometry": {"type": "Polygon", "coordinates": [[[128.67867641311722, 50.91147666312491], [128.67853541285223, 50.91129642168448], [128.67739750435817, 50.91129328326833], [128.67711613806208, 50.91084287218056], [128.678109937634, 50.911115396164234], [128.67811179834646, 50.91084562128315], [128.67839689242513, 50.910756480215966], [128.67853665169875, 50.91111657176327], [128.67924598770662, 50.911388302528], [128.67867641311722, 50.91147666312491]]]}}, {"id": "37", "type": "Feature", "properties": {"contour_id": "flood_0038", "area_ha": 0.51, "pair_id": "flood_2019_07_amur__belogorsk", "layer": "flood", "aoi_name": "Белогорск — река Томь", "event_name": "Паводок в Приамурье, июль 2019", "date_peak": "2019-07-25"}, "geometry": {"type": "Polygon", "coordinates": [[[128.3088183366486, 50.93253473891939], [128.30839411827304, 50.932352372457544], [128.30882633339976, 50.931995221911585], [128.30883033168303, 50.93172546338855], [128.30940482930592, 50.931369152745965], [128.30997399608944, 50.93137251738004], [128.30953780136093, 50.93199943083201], [128.3091109205637, 50.931996905999874], [128.3088183366486, 50.93253473891939]], [[128.30911358499543, 50.9318170669752], [128.30925454610093, 50.93190782826964], [128.30925587803904, 50.93181790875393], [128.30911358499543, 50.9318170669752]]]}}, {"id": "38", "type": "Feature", "properties": {"contour_id": "flood_0039", "area_ha": 0.48, "pair_id": "flood_2019_07_amur__belogorsk", "layer": "flood", "aoi_name": "Белогорск — река Томь", "event_name": "Паводок в Приамурье, июль 2019", "date_peak": "2019-07-25"}, "geometry": {"type": "Polygon", "coordinates": [[[128.31357099803103, 50.92869589474741], [128.3155735266095, 50.92798822981238], [128.31529556404413, 50.92753696310138], [128.31614792672036, 50.92763188539018], [128.31585677069805, 50.92807981706405], [128.31499647631375, 50.928524410707595], [128.31357099803103, 50.92869589474741]]]}}, {"id": "39", "type": "Feature", "properties": {"contour_id": "flood_0040", "area_ha": 0.48, "pair_id": "flood_2019_07_amur__belogorsk", "layer": "flood", "aoi_name": "Белогорск — река Томь", "event_name": "Паводок в Приамурье, июль 2019", "date_peak": "2019-07-25"}, "geometry": {"type": "Polygon", "coordinates": [[[128.60733559765816, 50.90379461011885], [128.60833939929617, 50.90280878556475], [128.60848613594973, 50.902269716081875], [128.60877130954074, 50.902180745080706], [128.60862156081396, 50.903079512561995], [128.60733559765816, 50.90379461011885]]]}}, {"id": "40", "type": "Feature", "properties": {"contour_id": "flood_0041", "area_ha": 0.48, "pair_id": "flood_2019_07_amur__belogorsk", "layer": "flood", "aoi_name": "Белогорск — река Томь", "event_name": "Паводок в Приамурье, июль 2019", "date_peak": "2019-07-25"}, "geometry": {"type": "Polygon", "coordinates": [[[128.59469422962226, 50.91831955841829], [128.59455587814244, 50.91786944445557], [128.59412988854447, 50.91777803778846], [128.59385085400152, 50.91714758035935], [128.5951264679755, 50.91769157084068], [128.59512412699317, 50.91796134292291], [128.59483961184577, 50.9179603560457], [128.59469422962226, 50.91831955841829]], [[128.59484195447305, 50.91769058397293], [128.59498343062467, 50.917781001520694], [128.59498421122228, 50.91769107749345], [128.59484195447305, 50.91769058397293]]]}}, {"id": "41", "type": "Feature", "properties": {"contour_id": "flood_0042", "area_ha": 0.46, "pair_id": "flood_2019_07_amur__belogorsk", "layer": "flood", "aoi_name": "Белогорск — река Томь", "event_name": "Паводок в Приамурье, июль 2019", "date_peak": "2019-07-25"}, "geometry": {"type": "Polygon", "coordinates": [[[128.63824852030393, 50.897149965180574], [128.6384025539616, 50.895621683850585], [128.6381202642448, 50.895351028224866], [128.6384046430504, 50.895351909365885], [128.63868763024323, 50.89553263947769], [128.63854335199517, 50.89580197381781], [128.6388277335603, 50.895802853933816], [128.63882425574596, 50.89625247805402], [128.63853847919654, 50.89643144755667], [128.63867719258576, 50.89688151177528], [128.6383928044559, 50.89688063127926], [128.6385329100697, 50.89715084603137], [128.63824852030393, 50.897149965180574]]]}}, {"id": "42", "type": "Feature", "properties": {"contour_id": "flood_0043", "area_ha": 0.46, "pair_id": "flood_2019_07_amur__belogorsk", "layer": "flood", "aoi_name": "Белогорск — река Томь", "event_name": "Паводок в Приамурье, июль 2019", "date_peak": "2019-07-25"}, "geometry": {"type": "Polygon", "coordinates": [[[128.6369470906234, 50.8999336605434], [128.6369519854852, 50.89930418729493], [128.63752218750133, 50.899126105150074], [128.63752637634153, 50.89858655654623], [128.6378128675634, 50.898317664844576], [128.63780519406785, 50.89930683732362], [128.6369470906234, 50.8999336605434]]]}}, {"id": "43", "type": "Feature", "properties": {"contour_id": "flood_0044", "area_ha": 0.45, "pair_id": "flood_2019_07_amur__belogorsk", "layer": "flood", "aoi_name": "Белогорск — река Томь", "event_name": "Паводок в Приамурье, июль 2019", "date_peak": "2019-07-25"}, "geometry": {"type": "Polygon", "coordinates": [[[128.2915842727777, 50.93351058938806], [128.2911614804926, 50.93323824143826], [128.29215892345343, 50.933154364319876], [128.2925926339278, 50.932707355262046], [128.2931618150057, 50.932710801900654], [128.29315772594416, 50.932980559476924], [128.2915842727777, 50.93351058938806]]]}}, {"id": "44", "type": "Feature", "properties": {"contour_id": "flood_0045", "area_ha": 0.44, "pair_id": "flood_2019_07_amur__belogorsk", "layer": "flood", "aoi_name": "Белогорск — река Томь", "event_name": "Паводок в Приамурье, июль 2019", "date_peak": "2019-07-25"}, "geometry": {"type": "Polygon", "coordinates": [[[128.67797452510587, 50.910125829339606], [128.6788316481223, 50.909588630030996], [128.67869436738476, 50.9088688387647], [128.67897944826484, 50.90877969622075], [128.67897697417786, 50.90913939621799], [128.67940119936324, 50.90950026860577], [128.67925649425615, 50.909859577937176], [128.67797452510587, 50.910125829339606]]]}}, {"id": "45", "type": "Feature", "properties": {"contour_id": "flood_0046", "area_ha": 0.44, "pair_id": "flood_2019_07_amur__belogorsk", "layer": "flood", "aoi_name": "Белогорск — река Томь", "event_name": "Паводок в Приамурье, июль 2019", "date_peak": "2019-07-25"}, "geometry": {"type": "Polygon", "coordinates": [[[128.62759969290852, 50.895138089602774], [128.62788693650228, 50.894779297444956], [128.62760543007008, 50.89441869175872], [128.6277497670184, 50.894149370997084], [128.62859930447533, 50.89460171181304], [128.62831063587112, 50.8951403552154], [128.62759969290852, 50.895138089602774]]]}}, {"id": "46", "type": "Feature", "properties": {"contour_id": "flood_0047", "area_ha": 0.43, "pair_id": "flood_2019_07_amur__belogorsk", "layer": "flood", "aoi_name": "Белогорск — река Томь", "event_name": "Паводок в Приамурье, июль 2019", "date_peak": "2019-07-25"}, "geometry": {"type": "Polygon", "coordinates": [[[128.63649247374977, 50.90352932166752], [128.63564269751123, 50.90307703848958], [128.63522378823907, 50.90208653472954], [128.63579403084188, 50.901908461194104], [128.6357919261795, 50.9021782352962], [128.63550820798093, 50.90208742300965], [128.63550680376622, 50.90226727240118], [128.6357898214847, 50.90244800938568], [128.63578561199805, 50.90298755752686], [128.63635376201276, 50.90307925537025], [128.63663608796662, 50.90334991498288], [128.63649247374977, 50.90352932166752]], [[128.63606933620136, 50.90307836913764], [128.63621084832974, 50.90316873702869], [128.63621154910524, 50.90307881234056], [128.63606933620136, 50.90307836913764]]]}}, {"id": "47", "type": "Feature", "properties": {"contour_id": "flood_0048", "area_ha": 0.43, "pair_id": "flood_2019_07_amur__belogorsk", "layer": "flood", "aoi_name": "Белогорск — река Томь", "event_name": "Паводок в Приамурье, июль 2019", "date_peak": "2019-07-25"}, "geometry": {"type": "Polygon", "coordinates": [[[128.59595976163965, 50.92003255182315], [128.59596209796277, 50.91976277980935], [128.5952523428574, 50.9195804683583], [128.59497328249145, 50.91895001374723], [128.59468876132038, 50.91894902648883], [128.59469110490238, 50.918679254467], [128.59497484378676, 50.91877016572781], [128.5949803081942, 50.91814069761563], [128.5952601439705, 50.91868122827171], [128.59511320193255, 50.91922027913984], [128.59610513954215, 50.91967334797053], [128.59595976163965, 50.92003255182315]]]}}, {"id": "48", "type": "Feature", "properties": {"contour_id": "flood_0049", "area_ha": 0.42, "pair_id": "flood_2019_07_amur__belogorsk", "layer": "flood", "aoi_name": "Белогорск — река Томь", "event_name": "Паводок в Приамурье, июль 2019", "date_peak": "2019-07-25"}, "geometry": {"type": "Polygon", "coordinates": [[[128.29210053480716, 50.94637332952904], [128.291535287462, 50.94610012019787], [128.29154622162093, 50.94538076850975], [128.29126565565872, 50.94510928440385], [128.29169265490336, 50.94511187494284], [128.29168855553309, 50.94538163185756], [128.29197322337842, 50.94538335803281], [128.29196502774298, 50.94592287185692], [128.29238930421792, 50.94610529781493], [128.29210053480716, 50.94637332952904]]]}}, {"id": "49", "type": "Feature", "properties": {"contour_id": "flood_0050", "area_ha": 0.41, "pair_id": "flood_2019_07_amur__belogorsk", "layer": "flood", "aoi_name": "Белогорск — река Томь", "event_name": "Паводок в Приамурье, июль 2019", "date_peak": "2019-07-25"}, "geometry": {"type": "Polygon", "coordinates": [[[128.38690907837898, 50.94610017884584], [128.3866303174126, 50.94564908064284], [128.38691972339262, 50.94529089263747], [128.38748906891962, 50.945293880053896], [128.38762431693212, 50.945834150697365], [128.38690907837898, 50.94610017884584]]]}}, {"id": "50", "type": "Feature", "properties": {"contour_id": "flood_0051", "area_ha": 0.4, "pair_id": "flood_2019_07_amur__belogorsk", "layer": "flood", "aoi_name": "Белогорск — река Томь", "event_name": "Паводок в Приамурье, июль 2019", "date_peak": "2019-07-25"}, "geometry": {"type": "Polygon", "coordinates": [[[128.49167222863642, 50.89435559000334], [128.49096817238038, 50.893723030732794], [128.4906896936157, 50.893182251918915], [128.49111721359185, 50.89309418887514], [128.4911132938819, 50.89345388129348], [128.49168005961724, 50.893636205193516], [128.491676144167, 50.89399589760968], [128.49196050919747, 50.89399713543618], [128.49181636947205, 50.89417636281309], [128.4920997575438, 50.894267523404814], [128.49167222863642, 50.89435559000334]]]}}, {"id": "51", "type": "Feature", "properties": {"contour_id": "flood_0052", "area_ha": 0.39, "pair_id": "flood_2019_07_amur__belogorsk", "layer": "flood", "aoi_name": "Белогорск — река Томь", "event_name": "Паводок в Приамурье, июль 2019", "date_peak": "2019-07-25"}, "geometry": {"type": "Polygon", "coordinates": [[[128.27358057678805, 50.938166138691834], [128.27344387066483, 50.93780557846542], [128.2725956211506, 50.93744058807773], [128.2726026355727, 50.93699099447719], [128.27373129257367, 50.93762751145272], [128.2735861808869, 50.93780646378064], [128.27386519944906, 50.938167908824646], [128.27358057678805, 50.938166138691834]]]}}, {"id": "52", "type": "Feature", "properties": {"contour_id": "flood_0053", "area_ha": 0.38, "pair_id": "flood_2019_07_amur__belogorsk", "layer": "flood", "aoi_name": "Белогорск — река Томь", "event_name": "Паводок в Приамурье, июль 2019", "date_peak": "2019-07-25"}, "geometry": {"type": "Polygon", "coordinates": [[[128.28376757934836, 50.93283341566269], [128.2834843703028, 50.932741750789575], [128.2834871336322, 50.93256191277698], [128.28377172270714, 50.932563658629235], [128.28349127857317, 50.93229215574744], [128.28449009411648, 50.932118425072176], [128.2844845752522, 50.932478101197944], [128.28376757934836, 50.93283341566269]]]}}, {"id": "53", "type": "Feature", "properties": {"contour_id": "flood_0054", "area_ha": 0.38, "pair_id": "flood_2019_07_amur__belogorsk", "layer": "flood", "aoi_name": "Белогорск — река Томь", "event_name": "Паводок в Приамурье, июль 2019", "date_peak": "2019-07-25"}, "geometry": {"type": "Polygon", "coordinates": [[[128.67669067249972, 50.91066184149205], [128.67669191842717, 50.91048199158379], [128.67527080931765, 50.91029819453009], [128.67527206070054, 50.910118344635805], [128.67740372038838, 50.91039403370629], [128.67669067249972, 50.91066184149205]]]}}, {"id": "54", "type": "Feature", "properties": {"contour_id": "flood_0055", "area_ha": 0.37, "pair_id": "flood_2019_07_amur__belogorsk", "layer": "flood", "aoi_name": "Белогорск — река Томь", "event_name": "Паводок в Приамурье, июль 2019", "date_peak": "2019-07-25"}, "geometry": {"type": "Polygon", "coordinates": [[[128.6268930611452, 50.894596271329654], [128.62618500605458, 50.89423429821549], [128.6260471409907, 50.89369429449318], [128.62661587766843, 50.8936961148563], [128.62689809060285, 50.89396679821282], [128.6268930611452, 50.894596271329654]]]}}, {"id": "55", "type": "Feature", "properties": {"contour_id": "flood_0056", "area_ha": 0.37, "pair_id": "flood_2019_07_amur__belogorsk", "layer": "flood", "aoi_name": "Белогорск — река Томь", "event_name": "Паводок в Приамурье, июль 2019", "date_peak": "2019-07-25"}, "geometry": {"type": "Polygon", "coordinates": [[[128.2890188026362, 50.93376478019332], [128.2891638425494, 50.933585808277414], [128.288883360802, 50.933314318242026], [128.2891665840588, 50.933405970068655], [128.28916932554003, 50.93322613185423], [128.28888610336656, 50.933134480035804], [128.28917480841815, 50.932866455408345], [128.28960169535713, 50.93286905314681], [128.28945254883197, 50.933317782988766], [128.28973714288912, 50.93331951432188], [128.28973029458504, 50.9337691098954], [128.2890188026362, 50.93376478019332]], [[128.2891665840588, 50.933405970068655], [128.2893075108673, 50.93349675527926], [128.28930888134414, 50.93340683617142], [128.2891665840588, 50.933405970068655]]]}}, {"id": "56", "type": "Feature", "properties": {"contour_id": "flood_0057", "area_ha": 0.36, "pair_id": "flood_2019_07_amur__belogorsk", "layer": "flood", "aoi_name": "Белогорск — река Томь", "event_name": "Паводок в Приамурье, июль 2019", "date_peak": "2019-07-25"}, "geometry": {"type": "Polygon", "coordinates": [[[128.55250365843276, 50.82284227175811], [128.5517972643244, 50.82247984730712], [128.55180242968416, 50.82194029729522], [128.5522283241528, 50.821941932444005], [128.5525079561817, 50.82239264673641], [128.55250365843276, 50.82284227175811]]]}}, {"id": "57", "type": "Feature", "properties": {"contour_id": "flood_0058", "area_ha": 0.36, "pair_id": "flood_2019_07_amur__belogorsk", "layer": "flood", "aoi_name": "Белогорск — река Томь", "event_name": "Паводок в Приамурье, июль 2019", "date_peak": "2019-07-25"}, "geometry": {"type": "Polygon", "coordinates": [[[128.61615956577958, 50.90301461106461], [128.61545294843947, 50.90247272431296], [128.61545517065701, 50.90220295085097], [128.6150292825252, 50.90211162040772], [128.61489004018264, 50.901751453459624], [128.61588106046275, 50.90229427974284], [128.6158788406991, 50.902564053214064], [128.6165876800967, 50.902836163925016], [128.61615956577958, 50.90301461106461]]]}}, {"id": "58", "type": "Feature", "properties": {"contour_id": "flood_0059", "area_ha": 0.36, "pair_id": "flood_2019_07_amur__belogorsk", "layer": "flood", "aoi_name": "Белогорск — река Томь", "event_name": "Паводок в Приамурье, июль 2019", "date_peak": "2019-07-25"}, "geometry": {"type": "Polygon", "coordinates": [[[128.30362246996555, 50.82297127014153], [128.30277203856355, 50.82287626238127], [128.30277605623172, 50.82260649913302], [128.30320461502404, 50.82242920102917], [128.3039117417471, 50.822613279905504], [128.30362246996555, 50.82297127014153]]]}}, {"id": "59", "type": "Feature", "properties": {"contour_id": "flood_0060", "area_ha": 0.35, "pair_id": "flood_2019_07_amur__belogorsk", "layer": "flood", "aoi_name": "Белогорск — река Томь", "event_name": "Паводок в Приамурье, июль 2019", "date_peak": "2019-07-25"}, "geometry": {"type": "Polygon", "coordinates": [[[128.3831344822313, 50.9516557682405], [128.38315471685615, 50.950127118961916], [128.38344179827624, 50.949948781167656], [128.3835698757335, 50.951028579281605], [128.3831344822313, 50.9516557682405]]]}}, {"id": "60", "type": "Feature", "properties": {"contour_id": "flood_0061", "area_ha": 0.34, "pair_id": "flood_2019_07_amur__belogorsk", "layer": "flood", "aoi_name": "Белогорск — река Томь", "event_name": "Паводок в Приамурье, июль 2019", "date_peak": "2019-07-25"}, "geometry": {"type": "Polygon", "coordinates": [[[128.61236164723678, 50.897966153292884], [128.6112248205732, 50.897872446178575], [128.61151594767594, 50.897064072176754], [128.6119410355084, 50.89724533992839], [128.61165215845318, 50.89778394143234], [128.61236164723678, 50.897966153292884]]]}}, {"id": "61", "type": "Feature", "properties": {"contour_id": "flood_0062", "area_ha": 0.34, "pair_id": "flood_2019_07_amur__belogorsk", "layer": "flood", "aoi_name": "Белогорск — река Томь", "event_name": "Паводок в Приамурье, июль 2019", "date_peak": "2019-07-25"}, "geometry": {"type": "Polygon", "coordinates": [[[128.6357339101341, 50.89138681784668], [128.63502864576836, 50.890665198645756], [128.6354586805937, 50.89021690692081], [128.63588520178806, 50.89021823800161], [128.63559874941916, 50.89048712542712], [128.63559524117653, 50.89093674979841], [128.636018264725, 50.89138770475118], [128.6357339101341, 50.89138681784668]]]}}, {"id": "62", "type": "Feature", "properties": {"contour_id": "flood_0063", "area_ha": 0.33, "pair_id": "flood_2019_07_amur__belogorsk", "layer": "flood", "aoi_name": "Белогорск — река Томь", "event_name": "Паводок в Приамурье, июль 2019", "date_peak": "2019-07-25"}, "geometry": {"type": "Polygon", "coordinates": [[[128.27402291273003, 50.93717968747743], [128.27345788315282, 50.93690639111625], [128.27346068556417, 50.936726553629384], [128.27374529942986, 50.93672832401874], [128.2736127987859, 50.936098007642215], [128.27418201889193, 50.93610154695478], [128.27432012539856, 50.93637218765821], [128.2738890067452, 50.93663929019928], [128.27402291273003, 50.93717968747743]]]}}, {"id": "63", "type": "Feature", "properties": {"contour_id": "flood_0064", "area_ha": 0.32, "pair_id": "flood_2019_07_amur__belogorsk", "layer": "flood", "aoi_name": "Белогорск — река Томь", "event_name": "Паводок в Приамурье, июль 2019", "date_peak": "2019-07-25"}, "geometry": {"type": "Polygon", "coordinates": [[[128.29212616226712, 50.93531242394077], [128.29155968200797, 50.93512913388019], [128.2912873774013, 50.934318134805764], [128.2921343529419, 50.93477290911217], [128.29212616226712, 50.93531242394077]]]}}, {"id": "64", "type": "Feature", "properties": {"contour_id": "flood_0065", "area_ha": 0.32, "pair_id": "flood_2019_07_amur__belogorsk", "layer": "flood", "aoi_name": "Белогорск — река Томь", "event_name": "Паводок в Приамурье, июль 2019", "date_peak": "2019-07-25"}, "geometry": {"type": "Polygon", "coordinates": [[[128.66756895969846, 50.91324410074863], [128.66742927882174, 50.91288399635387], [128.6671441509042, 50.91297311054443], [128.66657838934876, 50.91252186303065], [128.66658095929864, 50.91216216368799], [128.66700768244363, 50.91216338143816], [128.66714607513194, 50.912703336044984], [128.66771440565282, 50.91279488146361], [128.66785344841597, 50.91324491036045], [128.66756895969846, 50.91324410074863]]]}}, {"id": "65", "type": "Feature", "properties": {"contour_id": "flood_0066", "area_ha": 0.32, "pair_id": "flood_2019_07_amur__belogorsk", "layer": "flood", "aoi_name": "Белогорск — река Томь", "event_name": "Паводок в Приамурье, июль 2019", "date_peak": "2019-07-25"}, "geometry": {"type": "Polygon", "coordinates": [[[128.6065186924624, 50.89947536591076], [128.6060958815818, 50.89902430517728], [128.6068114257034, 50.8984871551647], [128.60680309535385, 50.899476324082876], [128.6065186924624, 50.89947536591076]]]}}, {"id": "66", "type": "Feature", "properties": {"contour_id": "flood_0067", "area_ha": 0.32, "pair_id": "flood_2019_07_amur__belogorsk", "layer": "flood", "aoi_name": "Белогорск — река Томь", "event_name": "Паводок в Приамурье, июль 2019", "date_peak": "2019-07-25"}, "geometry": {"type": "Polygon", "coordinates": [[[128.30766395452056, 50.9336070291071], [128.30767062988122, 50.93315743179666], [128.30824782190564, 50.93262128808354], [128.30867470834076, 50.93262381609274], [128.3085257459306, 50.93307257102994], [128.30809885540089, 50.933070042460336], [128.30809218418972, 50.93351963981818], [128.30766395452056, 50.9336070291071]]]}}, {"id": "67", "type": "Feature", "properties": {"contour_id": "flood_0068", "area_ha": 0.31, "pair_id": "flood_2019_07_amur__belogorsk", "layer": "flood", "aoi_name": "Белогорск — река Томь", "event_name": "Паводок в Приамурье, июль 2019", "date_peak": "2019-07-25"}, "geometry": {"type": "Polygon", "coordinates": [[[128.62549931784508, 50.89108465372904], [128.62535930574535, 50.89081442325438], [128.6257887140502, 50.89045609214004], [128.62678609005263, 50.89018950364272], [128.62650102390273, 50.89027851905644], [128.6266417599125, 50.89045882341041], [128.62592944783685, 50.890636397342504], [128.62578367026867, 50.89108556555796], [128.62549931784508, 50.89108465372904]]]}}, {"id": "68", "type": "Feature", "properties": {"contour_id": "flood_0069", "area_ha": 0.31, "pair_id": "flood_2019_07_amur__belogorsk", "layer": "flood", "aoi_name": "Белогорск — река Томь", "event_name": "Паводок в Приамурье, июль 2019", "date_peak": "2019-07-25"}, "geometry": {"type": "Polygon", "coordinates": [[[128.45379518952424, 50.9354610853926], [128.45308997773668, 50.934918223762345], [128.45323755622502, 50.934469280562375], [128.45394170991543, 50.93510206324736], [128.45379518952424, 50.9354610853926]]]}}, {"id": "69", "type": "Feature", "properties": {"contour_id": "flood_0070", "area_ha": 0.3, "pair_id": "flood_2019_07_amur__belogorsk", "layer": "flood", "aoi_name": "Белогорск — река Томь", "event_name": "Паводок в Приамурье, июль 2019", "date_peak": "2019-07-25"}, "geometry": {"type": "Polygon", "coordinates": [[[128.61180482180112, 50.89652547093687], [128.61209443627294, 50.89589694436688], [128.61237956404736, 50.89580796435417], [128.61238254996812, 50.89544826611927], [128.6128091178166, 50.89544968161168], [128.6123758315603, 50.896257587116274], [128.6120921951378, 50.89616671801511], [128.61208920690396, 50.896526416193154], [128.61180482180112, 50.89652547093687]]]}}, {"id": "70", "type": "Feature", "properties": {"contour_id": "flood_0071", "area_ha": 0.3, "pair_id": "flood_2019_07_amur__belogorsk", "layer": "flood", "aoi_name": "Белогорск — река Томь", "event_name": "Паводок в Приамурье, июль 2019", "date_peak": "2019-07-25"}, "geometry": {"type": "Polygon", "coordinates": [[[128.35701825738067, 50.97687424521665], [128.35673712033991, 50.97660291782413], [128.35646220095552, 50.975881991282854], [128.3570319171429, 50.97588512851611], [128.35688327782415, 50.97633394297722], [128.35744927665516, 50.97660683729508], [128.35701825738067, 50.97687424521665]]]}}, {"id": "71", "type": "Feature", "properties": {"contour_id": "flood_0072", "area_ha": 0.29, "pair_id": "flood_2019_07_amur__belogorsk", "layer": "flood", "aoi_name": "Белогорск — река Томь", "event_name": "Паводок в Приамурье, июль 2019", "date_peak": "2019-07-25"}, "geometry": {"type": "Polygon", "coordinates": [[[128.45448779294748, 50.93708300562487], [128.45407454144197, 50.93591202581929], [128.45379308277057, 50.93564092921248], [128.4540776999665, 50.935642260087334], [128.4544972615975, 50.93627370849844], [128.45448779294748, 50.93708300562487]]]}}, {"id": "72", "type": "Feature", "properties": {"contour_id": "flood_0073", "area_ha": 0.29, "pair_id": "flood_2019_07_amur__belogorsk", "layer": "flood", "aoi_name": "Белогорск — река Томь", "event_name": "Паводок в Приамурье, июль 2019", "date_peak": "2019-07-25"}, "geometry": {"type": "Polygon", "coordinates": [[[128.38430696282435, 50.92756151877632], [128.38459864606833, 50.92702349321364], [128.38560171721952, 50.926489212067764], [128.38545469912, 50.92684814721043], [128.38488202127863, 50.92711491348709], [128.3850219308294, 50.92729550478272], [128.38473380941736, 50.92756376859355], [128.38430696282435, 50.92756151877632]]]}}, {"id": "73", "type": "Feature", "properties": {"contour_id": "flood_0074", "area_ha": 0.28, "pair_id": "flood_2019_07_amur__belogorsk", "layer": "flood", "aoi_name": "Белогорск — река Томь", "event_name": "Паводок в Приамурье, июль 2019", "date_peak": "2019-07-25"}, "geometry": {"type": "Polygon", "coordinates": [[[128.45238689444398, 50.93419551405695], [128.45267572467102, 50.933837160664325], [128.45268205738893, 50.93329762912074], [128.45282435880662, 50.93329829597685], [128.45310157923038, 50.93392908267614], [128.4528138069123, 50.93419751520927], [128.45238689444398, 50.93419551405695]]]}}, {"id": "74", "type": "Feature", "properties": {"contour_id": "flood_0075", "area_ha": 0.28, "pair_id": "flood_2019_07_amur__belogorsk", "layer": "flood", "aoi_name": "Белогорск — река Томь", "event_name": "Паводок в Приамурье, июль 2019", "date_peak": "2019-07-25"}, "geometry": {"type": "Polygon", "coordinates": [[[128.66210607202072, 50.901537941561166], [128.66125673539105, 50.90099591929425], [128.6612632600318, 50.90009666960086], [128.66139959454026, 50.900906406841365], [128.6622502323637, 50.901268578145554], [128.66210607202072, 50.901537941561166]]]}}, {"id": "75", "type": "Feature", "properties": {"contour_id": "flood_0076", "area_ha": 0.28, "pair_id": "flood_2019_07_amur__belogorsk", "layer": "flood", "aoi_name": "Белогорск — река Томь", "event_name": "Паводок в Приамурье, июль 2019", "date_peak": "2019-07-25"}, "geometry": {"type": "Polygon", "coordinates": [[[128.31170804047568, 50.929584202974745], [128.3120005722915, 50.92904636234197], [128.31271729624842, 50.92869087324129], [128.31242344924493, 50.9293186353588], [128.31199659272627, 50.92931612116931], [128.31227718575116, 50.92958755629959], [128.31170804047568, 50.929584202974745]]]}}, {"id": "76", "type": "Feature", "properties": {"contour_id": "flood_0077", "area_ha": 0.28, "pair_id": "flood_2019_07_amur__belogorsk", "layer": "flood", "aoi_name": "Белогорск — река Томь", "event_name": "Паводок в Приамурье, июль 2019", "date_peak": "2019-07-25"}, "geometry": {"type": "Polygon", "coordinates": [[[128.6374114121001, 50.89507904787405], [128.63741280861996, 50.89489919822185], [128.63698554551965, 50.89498779745767], [128.63684825264434, 50.89435788147012], [128.63755848650203, 50.89445001557576], [128.6374114121001, 50.89507904787405]]]}}, {"id": "77", "type": "Feature", "properties": {"contour_id": "flood_0078", "area_ha": 0.27, "pair_id": "flood_2019_07_amur__belogorsk", "layer": "flood", "aoi_name": "Белогорск — река Томь", "event_name": "Паводок в Приамурье, июль 2019", "date_peak": "2019-07-25"}, "geometry": {"type": "Polygon", "coordinates": [[[128.27102740987553, 50.93761066421352], [128.27118518125974, 50.93662244684516], [128.27146979434633, 50.93662422277754], [128.2714557436582, 50.93752340977376], [128.27102740987553, 50.93761066421352]]]}}, {"id": "78", "type": "Feature", "properties": {"contour_id": "flood_0079", "area_ha": 0.27, "pair_id": "flood_2019_07_amur__belogorsk", "layer": "flood", "aoi_name": "Белогорск — река Томь", "event_name": "Паводок в Приамурье, июль 2019", "date_peak": "2019-07-25"}, "geometry": {"type": "Polygon", "coordinates": [[[128.6141960897751, 50.899680842425006], [128.61434200601764, 50.89923168964713], [128.6139183779917, 50.89887058159267], [128.61448717692195, 50.89887246117757], [128.61476564058984, 50.89959279615634], [128.6141960897751, 50.899680842425006]]]}}, {"id": "79", "type": "Feature", "properties": {"contour_id": "flood_0080", "area_ha": 0.27, "pair_id": "flood_2019_07_amur__belogorsk", "layer": "flood", "aoi_name": "Белогорск — река Томь", "event_name": "Паводок в Приамурье, июль 2019", "date_peak": "2019-07-25"}, "geometry": {"type": "Polygon", "coordinates": [[[128.4468669034079, 50.931651545371146], [128.44715256196156, 50.9315629711799], [128.4471557600375, 50.93129320555873], [128.44644748641394, 50.93102006950052], [128.44645068850653, 50.93075030388621], [128.44772281089794, 50.9314757425692], [128.4468669034079, 50.931651545371146]]]}}, {"id": "80", "type": "Feature", "properties": {"contour_id": "flood_0081", "area_ha": 0.27, "pair_id": "flood_2019_07_amur__belogorsk", "layer": "flood", "aoi_name": "Белогорск — река Томь", "event_name": "Паводок в Приамурье, июль 2019", "date_peak": "2019-07-25"}, "geometry": {"type": "Polygon", "coordinates": [[[128.44947875142736, 50.81880452899807], [128.44948403783906, 50.818354910712465], [128.45033891521504, 50.81808915513273], [128.45033574833946, 50.81835892615936], [128.44947875142736, 50.81880452899807]]]}}, {"id": "81", "type": "Feature", "properties": {"contour_id": "flood_0082", "area_ha": 0.27, "pair_id": "flood_2019_07_amur__belogorsk", "layer": "flood", "aoi_name": "Белогорск — река Томь", "event_name": "Паводок в Приамурье, июль 2019", "date_peak": "2019-07-25"}, "geometry": {"type": "Polygon", "coordinates": [[[128.60582992101502, 50.91368148997799], [128.6062581726961, 50.91350308134962], [128.60626272515154, 50.912963536026794], [128.60654721022877, 50.91296449500353], [128.60654493566307, 50.9132342676804], [128.60682866475224, 50.913325150199064], [128.60682639178444, 50.9135949228683], [128.60582992101502, 50.91368148997799]]]}}, {"id": "82", "type": "Feature", "properties": {"contour_id": "flood_0083", "area_ha": 0.26, "pair_id": "flood_2019_07_amur__belogorsk", "layer": "flood", "aoi_name": "Белогорск — река Томь", "event_name": "Паводок в Приамурье, июль 2019", "date_peak": "2019-07-25"}, "geometry": {"type": "Polygon", "coordinates": [[[128.2713373247729, 50.935993903935994], [128.27091884728677, 50.93545172705895], [128.2709258773793, 50.93500213347186], [128.2713513769793, 50.93509471672661], [128.27134435096622, 50.93554431034906], [128.27162895748202, 50.93554608586673], [128.2713373247729, 50.935993903935994]], [[128.27106396175498, 50.93527277798559], [128.27120485869474, 50.93536358489107], [128.27120626417172, 50.93527366616941], [128.27106396175498, 50.93527277798559]]]}}, {"id": "83", "type": "Feature", "properties": {"contour_id": "flood_0084", "area_ha": 0.25, "pair_id": "flood_2019_07_amur__belogorsk", "layer": "flood", "aoi_name": "Белогорск — река Томь", "event_name": "Паводок в Приамурье, июль 2019", "date_peak": "2019-07-25"}, "geometry": {"type": "Polygon", "coordinates": [[[128.26590568667027, 50.93748865288025], [128.266339688566, 50.937041742881775], [128.26733584237797, 50.93704799697836], [128.26676095503097, 50.93740409866173], [128.26590568667027, 50.93748865288025]]]}}, {"id": "84", "type": "Feature", "properties": {"contour_id": "flood_0085", "area_ha": 0.25, "pair_id": "flood_2019_07_amur__belogorsk", "layer": "flood", "aoi_name": "Белогорск — река Томь", "event_name": "Паводок в Приамурье, июль 2019", "date_peak": "2019-07-25"}, "geometry": {"type": "Polygon", "coordinates": [[[128.60441107157766, 50.87968427107839], [128.60398617253705, 50.879502975787794], [128.6039884591471, 50.87923320162655], [128.603704179591, 50.879232236872035], [128.60370723053813, 50.87887253798305], [128.6039930322617, 50.878693653266204], [128.60427730855082, 50.87869461731001], [128.604130598931, 50.8792336837442], [128.60455473497882, 50.87950490323839], [128.60441107157766, 50.87968427107839]]]}}, {"id": "85", "type": "Feature", "properties": {"contour_id": "flood_0086", "area_ha": 0.25, "pair_id": "flood_2019_07_amur__belogorsk", "layer": "flood", "aoi_name": "Белогорск — река Томь", "event_name": "Паводок в Приамурье, июль 2019", "date_peak": "2019-07-25"}, "geometry": {"type": "Polygon", "coordinates": [[[128.636541482019, 50.89723459031181], [128.63625779234417, 50.89714377982856], [128.6362612949822, 50.89669415590494], [128.6368335659225, 50.89624630259698], [128.636541482019, 50.89723459031181]]]}}, {"id": "86", "type": "Feature", "properties": {"contour_id": "flood_0087", "area_ha": 0.25, "pair_id": "flood_2019_07_amur__belogorsk", "layer": "flood", "aoi_name": "Белогорск — река Томь", "event_name": "Паводок в Приамурье, июль 2019", "date_peak": "2019-07-25"}, "geometry": {"type": "Polygon", "coordinates": [[[128.26536115434916, 50.944949205030916], [128.2653668232241, 50.944589531198424], [128.26494124926285, 50.94449692597695], [128.2648031737423, 50.94422627468416], [128.26580089708727, 50.944142624040424], [128.26537249198267, 50.9442298573432], [128.2656458179052, 50.944950995365424], [128.26536115434916, 50.944949205030916]]]}}, {"id": "87", "type": "Feature", "properties": {"contour_id": "flood_0088", "area_ha": 0.25, "pair_id": "flood_2019_07_amur__belogorsk", "layer": "flood", "aoi_name": "Белогорск — река Томь", "event_name": "Паводок в Приамурье, июль 2019", "date_peak": "2019-07-25"}, "geometry": {"type": "Polygon", "coordinates": [[[128.45316868798767, 50.97673442770717], [128.4528912163501, 50.97610364500502], [128.4530420993298, 50.97538494179485], [128.45332273621986, 50.97574596037404], [128.45316868798767, 50.97673442770717]]]}}, {"id": "88", "type": "Feature", "properties": {"contour_id": "flood_0089", "area_ha": 0.25, "pair_id": "flood_2019_07_amur__belogorsk", "layer": "flood", "aoi_name": "Белогорск — река Томь", "event_name": "Паводок в Приамурье, июль 2019", "date_peak": "2019-07-25"}, "geometry": {"type": "Polygon", "coordinates": [[[128.42443343758907, 50.95060762104179], [128.42372945341103, 50.94997466266846], [128.42344475017393, 50.94997325754913], [128.42344808757625, 50.9497034938845], [128.42387402833097, 50.94979552251279], [128.42443565876462, 50.95042777858853], [128.4250039614277, 50.95052050455641], [128.42443343758907, 50.95060762104179]]]}}, {"id": "89", "type": "Feature", "properties": {"contour_id": "flood_0090", "area_ha": 0.25, "pair_id": "flood_2019_07_amur__belogorsk", "layer": "flood", "aoi_name": "Белогорск — река Томь", "event_name": "Паводок в Приамурье, июль 2019", "date_peak": "2019-07-25"}, "geometry": {"type": "Polygon", "coordinates": [[[128.5330289798294, 50.89641681113337], [128.53274639805096, 50.89623582607136], [128.53289128698358, 50.89596662421139], [128.53346094302302, 50.895878974825976], [128.53345824759157, 50.89614874571139], [128.53388481745796, 50.89615044958732], [128.5330289798294, 50.89641681113337]]]}}, {"id": "90", "type": "Feature", "properties": {"contour_id": "flood_0091", "area_ha": 0.25, "pair_id": "flood_2019_07_amur__belogorsk", "layer": "flood", "aoi_name": "Белогорск — река Томь", "event_name": "Паводок в Приамурье, июль 2019", "date_peak": "2019-07-25"}, "geometry": {"type": "Polygon", "coordinates": [[[128.57931004690923, 50.920513313801365], [128.57902876246882, 50.92015259312997], [128.57931410128577, 50.92006369474996], [128.57931815555833, 50.919614075663496], [128.57903444228904, 50.919523126431784], [128.57946122846226, 50.91952466428713], [128.57974332252763, 50.91979546013241], [128.5797417024596, 50.919975307775395], [128.57945717558144, 50.91997428338877], [128.5795953874046, 50.920424414743486], [128.57931004690923, 50.920513313801365]]]}}, {"id": "91", "type": "Feature", "properties": {"contour_id": "flood_0092", "area_ha": 0.24, "pair_id": "flood_2019_07_amur__belogorsk", "layer": "flood", "aoi_name": "Белогорск — река Томь", "event_name": "Паводок в Приамурье, июль 2019", "date_peak": "2019-07-25"}, "geometry": {"type": "Polygon", "coordinates": [[[128.51471841152576, 50.92062244614838], [128.5147212176677, 50.920352677133835], [128.51586399019536, 50.91990778637046], [128.51543160030667, 50.92044555417704], [128.51471841152576, 50.92062244614838]]]}}, {"id": "92", "type": "Feature", "properties": {"contour_id": "flood_0093", "area_ha": 0.22, "pair_id": "flood_2019_07_amur__belogorsk", "layer": "flood", "aoi_name": "Белогорск — река Томь", "event_name": "Паводок в Приамурье, июль 2019", "date_peak": "2019-07-25"}, "geometry": {"type": "Polygon", "coordinates": [[[128.5879469224201, 50.92522029805398], [128.58666879680064, 50.924946001030534], [128.58638822618295, 50.92449537433977], [128.58695574308325, 50.924677236432245], [128.5869541505414, 50.92485708408882], [128.58794851115476, 50.92504045038618], [128.5879469224201, 50.92522029805398]]]}}, {"id": "93", "type": "Feature", "properties": {"contour_id": "flood_0094", "area_ha": 0.21, "pair_id": "flood_2019_07_amur__belogorsk", "layer": "flood", "aoi_name": "Белогорск — река Томь", "event_name": "Паводок в Приамурье, июль 2019", "date_peak": "2019-07-25"}, "geometry": {"type": "Polygon", "coordinates": [[[128.41278465593044, 50.93733038829553], [128.41207536010202, 50.93714696566186], [128.41151405630262, 50.93651464980177], [128.41264574159246, 50.93705990887488], [128.41278465593044, 50.93733038829553]]]}}, {"id": "94", "type": "Feature", "properties": {"contour_id": "flood_0095", "area_ha": 0.2, "pair_id": "flood_2019_07_amur__belogorsk", "layer": "flood", "aoi_name": "Белогорск — река Томь", "event_name": "Паводок в Приамурье, июль 2019", "date_peak": "2019-07-25"}, "geometry": {"type": "Polygon", "coordinates": [[[128.63106053156045, 50.889034038182686], [128.63134984014317, 50.8884054624037], [128.63191851275928, 50.888407256801685], [128.6317735087835, 50.88876650793702], [128.63106053156045, 50.889034038182686]]]}}, {"id": "95", "type": "Feature", "properties": {"contour_id": "flood_0096", "area_ha": 0.2, "pair_id": "flood_2019_07_amur__belogorsk", "layer": "flood", "aoi_name": "Белогорск — река Томь", "event_name": "Паводок в Приамурье, июль 2019", "date_peak": "2019-07-25"}, "geometry": {"type": "Polygon", "coordinates": [[[128.41137288131043, 50.936424011340094], [128.4105247060482, 50.93597009822528], [128.41038694592137, 50.935609694878245], [128.41081273196164, 50.93570177084819], [128.4110905329726, 50.93624273390599], [128.4113751517392, 50.93624416886454], [128.41137288131043, 50.936424011340094]]]}}, {"id": "96", "type": "Feature", "properties": {"contour_id": "flood_0097", "area_ha": 0.2, "pair_id": "flood_2019_07_amur__belogorsk", "layer": "flood", "aoi_name": "Белогорск — река Томь", "event_name": "Паводок в Приамурье, июль 2019", "date_peak": "2019-07-25"}, "geometry": {"type": "Polygon", "coordinates": [[[128.59429873022302, 50.914721114732416], [128.5944433225716, 50.914451836684236], [128.59586890663218, 50.91409707236173], [128.5954390507352, 50.9144552909317], [128.59429873022302, 50.914721114732416]]]}}, {"id": "97", "type": "Feature", "properties": {"contour_id": "flood_0098", "area_ha": 0.2, "pair_id": "flood_2019_07_amur__belogorsk", "layer": "flood", "aoi_name": "Белогорск — река Томь", "event_name": "Паводок в Приамурье, июль 2019", "date_peak": "2019-07-25"}, "geometry": {"type": "Polygon", "coordinates": [[[128.60665028712918, 50.90073478707637], [128.60665407535123, 50.900285164967556], [128.60708295752232, 50.9000168281917], [128.60722137793886, 50.90046692884107], [128.60665028712918, 50.90073478707637]]]}}, {"id": "98", "type": "Feature", "properties": {"contour_id": "flood_0099", "area_ha": 0.19, "pair_id": "flood_2019_07_amur__belogorsk", "layer": "flood", "aoi_name": "Белогорск — река Томь", "event_name": "Паводок в Приамурье, июль 2019", "date_peak": "2019-07-25"}, "geometry": {"type": "Polygon", "coordinates": [[[128.45438967475798, 50.9333056199503], [128.4543928311663, 50.9330358540831], [128.45382678823484, 50.932763427418514], [128.45453828736234, 50.93276675296593], [128.45453618367665, 50.93294659689149], [128.45482078446292, 50.93294792590521], [128.45481657922178, 50.93330761375638], [128.45438967475798, 50.9333056199503]], [[128.45425263530626, 50.93285534522638], [128.4543938832916, 50.932945932124554], [128.4543949354115, 50.9328560101646], [128.45425263530626, 50.93285534522638]]]}}, {"id": "99", "type": "Feature", "properties": {"contour_id": "flood_0100", "area_ha": 0.19, "pair_id": "flood_2019_07_amur__belogorsk", "layer": "flood", "aoi_name": "Белогорск — река Томь", "event_name": "Паводок в Приамурье, июль 2019", "date_peak": "2019-07-25"}, "geometry": {"type": "Polygon", "coordinates": [[[128.30775686014326, 50.93693489176847], [128.30776353539923, 50.93648529470686], [128.3086227124907, 50.93613067523943], [128.30862004575638, 50.93631051411192], [128.30775686014326, 50.93693489176847]]]}}, {"id": "100", "type": "Feature", "properties": {"contour_id": "flood_0101", "area_ha": 0.19, "pair_id": "flood_2019_07_amur__belogorsk", "layer": "flood", "aoi_name": "Белогорск — река Томь", "event_name": "Паводок в Приамурье, июль 2019", "date_peak": "2019-07-25"}, "geometry": {"type": "Polygon", "coordinates": [[[128.59705204747314, 50.92534199881683], [128.596769041975, 50.925161168674386], [128.5969136527866, 50.924891888091445], [128.5964875944691, 50.92480048997923], [128.59663220577343, 50.92453120972931], [128.59719743375325, 50.92498279395051], [128.59705204747314, 50.92534199881683]]]}}, {"id": "101", "type": "Feature", "properties": {"contour_id": "flood_0102", "area_ha": 0.18, "pair_id": "flood_2019_07_amur__belogorsk", "layer": "flood", "aoi_name": "Белогорск — река Томь", "event_name": "Паводок в Приамурье, июль 2019", "date_peak": "2019-07-25"}, "geometry": {"type": "Polygon", "coordinates": [[[128.38315800213294, 50.928364799746895], [128.38316038070417, 50.92818495795441], [128.38416230599296, 50.92774061033629], [128.3837283288064, 50.92827788388481], [128.38315800213294, 50.928364799746895]]]}}, {"id": "102", "type": "Feature", "properties": {"contour_id": "flood_0103", "area_ha": 0.17, "pair_id": "flood_2019_07_amur__belogorsk", "layer": "flood", "aoi_name": "Белогорск — река Томь", "event_name": "Паводок в Приамурье, июль 2019", "date_peak": "2019-07-25"}, "geometry": {"type": "Polygon", "coordinates": [[[128.68069360191896, 50.90770527609221], [128.68069606265058, 50.90734557594584], [128.68041345668772, 50.907075022571675], [128.68112274235796, 50.9073467420322], [128.68112028491444, 50.90770644219343], [128.68069360191896, 50.90770527609221]]]}}, {"id": "103", "type": "Feature", "properties": {"contour_id": "flood_0104", "area_ha": 0.17, "pair_id": "flood_2019_07_amur__belogorsk", "layer": "flood", "aoi_name": "Белогорск — река Томь", "event_name": "Паводок в Приамурье, июль 2019", "date_peak": "2019-07-25"}, "geometry": {"type": "Polygon", "coordinates": [[[128.5852508070755, 50.92440141334464], [128.58525240615867, 50.92422156571261], [128.5848263770572, 50.92413012511063], [128.58483117912024, 50.92359058220148], [128.58539628117174, 50.92404222332128], [128.5852508070755, 50.92440141334464]]]}}, {"id": "104", "type": "Feature", "properties": {"contour_id": "flood_0105", "area_ha": 0.16, "pair_id": "flood_2019_07_amur__belogorsk", "layer": "flood", "aoi_name": "Белогорск — река Томь", "event_name": "Паводок в Приамурье, июль 2019", "date_peak": "2019-07-25"}, "geometry": {"type": "Polygon", "coordinates": [[[128.62963383955324, 50.88965901035352], [128.6296359788474, 50.88938923585574], [128.6307747696731, 50.8892129889331], [128.63063117673357, 50.88939238888765], [128.62963383955324, 50.88965901035352]]]}}, {"id": "105", "type": "Feature", "properties": {"contour_id": "flood_0106", "area_ha": 0.12, "pair_id": "flood_2019_07_amur__belogorsk", "layer": "flood", "aoi_name": "Белогорск — река Томь", "event_name": "Паводок в Приамурье, июль 2019", "date_peak": "2019-07-25"}, "geometry": {"type": "Polygon", "coordinates": [[[128.54016203903825, 50.937361854938864], [128.54016647335357, 50.93691223955514], [128.54059430247486, 50.93682399679291], [128.54044844315032, 50.937183129189776], [128.54016203903825, 50.937361854938864]]]}}, {"id": "106", "type": "Feature", "properties": {"contour_id": "flood_0107", "area_ha": 0.12, "pair_id": "flood_2019_07_amur__belogorsk", "layer": "flood", "aoi_name": "Белогорск — река Томь", "event_name": "Паводок в Приамурье, июль 2019", "date_peak": "2019-07-25"}, "geometry": {"type": "Polygon", "coordinates": [[[128.53872998554272, 50.93825547298009], [128.53887497212455, 50.937986265886984], [128.53958922422714, 50.93771930429624], [128.53930103642188, 50.93807787400986], [128.53872998554272, 50.93825547298009]]]}}, {"id": "107", "type": "Feature", "properties": {"contour_id": "flood_0108", "area_ha": 0.12, "pair_id": "flood_2019_07_amur__belogorsk", "layer": "flood", "aoi_name": "Белогорск — река Томь", "event_name": "Паводок в Приамурье, июль 2019", "date_peak": "2019-07-25"}, "geometry": {"type": "Polygon", "coordinates": [[[128.67787015026394, 50.90464001112587], [128.67701870723275, 50.90436787855807], [128.67687773472616, 50.904187634946545], [128.67787139138, 50.90446016101021], [128.67787015026394, 50.90464001112587]]]}}, {"id": "108", "type": "Feature", "properties": {"contour_id": "flood_0109", "area_ha": 0.12, "pair_id": "flood_2019_07_amur__belogorsk", "layer": "flood", "aoi_name": "Белогорск — река Томь", "event_name": "Паводок в Приамурье, июль 2019", "date_peak": "2019-07-25"}, "geometry": {"type": "Polygon", "coordinates": [[[128.34880520507156, 50.94283641211996], [128.34895255643247, 50.94247752534232], [128.3495256277196, 50.94221093743684], [128.34923469926758, 50.94265895204797], [128.34880520507156, 50.94283641211996]]]}}, {"id": "109", "type": "Feature", "properties": {"contour_id": "flood_0110", "area_ha": 0.12, "pair_id": "flood_2019_07_amur__belogorsk", "layer": "flood", "aoi_name": "Белогорск — река Томь", "event_name": "Паводок в Приамурье, июль 2019", "date_peak": "2019-07-25"}, "geometry": {"type": "Polygon", "coordinates": [[[128.38850429876075, 50.94386036961631], [128.3885066580187, 50.943680528123636], [128.38922185029085, 50.94341448992133], [128.38907480551754, 50.94377342849341], [128.38850429876075, 50.94386036961631]]]}}, {"id": "110", "type": "Feature", "properties": {"contour_id": "flood_0111", "area_ha": 0.11, "pair_id": "flood_2019_07_amur__belogorsk", "layer": "flood", "aoi_name": "Белогорск — река Томь", "event_name": "Паводок в Приамурье, июль 2019", "date_peak": "2019-07-25"}, "geometry": {"type": "Polygon", "coordinates": [[[128.30652690435235, 50.933510354898246], [128.30638861885026, 50.93323975146073], [128.30610536234138, 50.93314814127361], [128.30681551077942, 50.93324228628809], [128.30681150062475, 50.933512044625935], [128.30652690435235, 50.933510354898246]]]}}, {"id": "111", "type": "Feature", "properties": {"contour_id": "flood_0112", "area_ha": 0.11, "pair_id": "flood_2019_07_amur__belogorsk", "layer": "flood", "aoi_name": "Белогорск — река Томь", "event_name": "Паводок в Приамурье, июль 2019", "date_peak": "2019-07-25"}, "geometry": {"type": "Polygon", "coordinates": [[[128.3499538594938, 50.94212339477085], [128.34981404219224, 50.941942762259536], [128.35038710198924, 50.94167617006002], [128.35038334276135, 50.94194593041266], [128.3499538594938, 50.94212339477085]]]}}, {"id": "112", "type": "Feature", "properties": {"contour_id": "flood_0113", "area_ha": 0.1, "pair_id": "flood_2019_07_amur__belogorsk", "layer": "flood", "aoi_name": "Белогорск — река Томь", "event_name": "Паводок в Приамурье, июль 2019", "date_peak": "2019-07-25"}, "geometry": {"type": "Polygon", "coordinates": [[[128.6690016087711, 50.91180934419975], [128.66928800054967, 50.91154037569289], [128.66971471812602, 50.91154158353938], [128.66957056880884, 50.91181095571679], [128.6690016087711, 50.91180934419975]]]}}, {"id": "113", "type": "Feature", "properties": {"contour_id": "flood_0114", "area_ha": 0.1, "pair_id": "flood_2019_07_amur__belogorsk", "layer": "flood", "aoi_name": "Белогорск — река Томь", "event_name": "Паводок в Приамурье, июль 2019", "date_peak": "2019-07-25"}, "geometry": {"type": "Polygon", "coordinates": [[[128.596807905114, 50.92066497032144], [128.59652570653637, 50.920394215506505], [128.5965272619275, 50.92021436749738], [128.59695327849082, 50.92030576544149], [128.596807905114, 50.92066497032144]]]}}, {"id": "114", "type": "Feature", "properties": {"contour_id": "flood_0115", "area_ha": 0.1, "pair_id": "flood_2019_07_amur__belogorsk", "layer": "flood", "aoi_name": "Белогорск — река Томь", "event_name": "Паводок в Приамурье, июль 2019", "date_peak": "2019-07-25"}, "geometry": {"type": "Polygon", "coordinates": [[[128.58426688940762, 50.923049014514], [128.58384247739096, 50.92277772268319], [128.5838440818112, 50.922597875032956], [128.58441156567875, 50.922779749471765], [128.58426688940762, 50.923049014514]]]}}, {"id": "115", "type": "Feature", "properties": {"contour_id": "flood_0116", "area_ha": 0.1, "pair_id": "flood_2019_07_amur__belogorsk", "layer": "flood", "aoi_name": "Белогорск — река Томь", "event_name": "Паводок в Приамурье, июль 2019", "date_peak": "2019-07-25"}, "geometry": {"type": "Polygon", "coordinates": [[[128.66526982874672, 50.91647489115533], [128.66498725736034, 50.916204300934275], [128.66584142147013, 50.916116821892295], [128.66541401740125, 50.916205524578004], [128.66526982874672, 50.91647489115533]]]}}, {"id": "116", "type": "Feature", "properties": {"contour_id": "flood_0117", "area_ha": 0.09, "pair_id": "flood_2019_07_amur__belogorsk", "layer": "flood", "aoi_name": "Белогорск — река Томь", "event_name": "Паводок в Приамурье, июль 2019", "date_peak": "2019-07-25"}, "geometry": {"type": "Polygon", "coordinates": [[[128.59648837236213, 50.924710566044034], [128.5962069297292, 50.92434988665566], [128.59663453858192, 50.92426143790219], [128.59648837236213, 50.924710566044034]]]}}, {"id": "117", "type": "Feature", "properties": {"contour_id": "flood_0118", "area_ha": 0.09, "pair_id": "flood_2019_07_amur__belogorsk", "layer": "flood", "aoi_name": "Белогорск — река Томь", "event_name": "Паводок в Приамурье, июль 2019", "date_peak": "2019-07-25"}, "geometry": {"type": "Polygon", "coordinates": [[[128.31127321392498, 50.93012120367156], [128.31127586984076, 50.929941364506995], [128.31184899995426, 50.92967496116534], [128.3115577897998, 50.930122881752915], [128.31127321392498, 50.93012120367156]]]}}, {"id": "118", "type": "Feature", "properties": {"contour_id": "flood_0119", "area_ha": 0.08, "pair_id": "flood_2019_07_amur__belogorsk", "layer": "flood", "aoi_name": "Белогорск — река Томь", "event_name": "Паводок в Приамурье, июль 2019", "date_peak": "2019-07-25"}, "geometry": {"type": "Polygon", "coordinates": [[[128.53844178780184, 50.93861404051444], [128.53858766711545, 50.93825491076413], [128.5388714145821, 50.93834595806502], [128.53886874637735, 50.9386157271838], [128.53844178780184, 50.93861404051444]]]}}, {"id": "119", "type": "Feature", "properties": {"contour_id": "flood_0120", "area_ha": 0.08, "pair_id": "flood_2019_07_amur__belogorsk", "layer": "flood", "aoi_name": "Белогорск — река Томь", "event_name": "Паводок в Приамурье, июль 2019", "date_peak": "2019-07-25"}, "geometry": {"type": "Polygon", "coordinates": [[[128.58865594138908, 50.92549257770343], [128.58794533366904, 50.92540014571616], [128.5879469224201, 50.92522029805398], [128.58865594138908, 50.92549257770343]]]}}, {"id": "120", "type": "Feature", "properties": {"contour_id": "flood_0121", "area_ha": 0.08, "pair_id": "flood_2019_07_amur__belogorsk", "layer": "flood", "aoi_name": "Белогорск — река Томь", "event_name": "Паводок в Приамурье, июль 2019", "date_peak": "2019-07-25"}, "geometry": {"type": "Polygon", "coordinates": [[[128.38922185029085, 50.94341448992133], [128.3892253849601, 50.94314472762342], [128.38965472938912, 50.942967118395835], [128.38965119722684, 50.943236880723575], [128.38922185029085, 50.94341448992133]]]}}, {"id": "121", "type": "Feature", "properties": {"contour_id": "flood_0122", "area_ha": 0.08, "pair_id": "flood_2019_07_amur__belogorsk", "layer": "flood", "aoi_name": "Белогорск — река Томь", "event_name": "Паводок в Приамурье, июль 2019", "date_peak": "2019-07-25"}, "geometry": {"type": "Polygon", "coordinates": [[[128.58468890456166, 50.923590076269846], [128.5846929075392, 50.92314045714841], [128.58440916230842, 50.92304952095596], [128.58483598103552, 50.92305103924188], [128.58468890456166, 50.923590076269846]]]}}, {"id": "122", "type": "Feature", "properties": {"contour_id": "flood_0123", "area_ha": 0.07, "pair_id": "flood_2019_07_amur__belogorsk", "layer": "flood", "aoi_name": "Белогорск — река Томь", "event_name": "Паводок в Приамурье, июль 2019", "date_peak": "2019-07-25"}, "geometry": {"type": "Polygon", "coordinates": [[[128.5863890235366, 50.92440545051299], [128.5855353611662, 50.9244024236768], [128.58553616016133, 50.92431249985828], [128.5863890235366, 50.92440545051299]]]}}, {"id": "123", "type": "Feature", "properties": {"contour_id": "flood_0124", "area_ha": 0.06, "pair_id": "flood_2019_07_amur__belogorsk", "layer": "flood", "aoi_name": "Белогорск — река Томь", "event_name": "Паводок в Приамурье, июль 2019", "date_peak": "2019-07-25"}, "geometry": {"type": "Polygon", "coordinates": [[[128.45354218862167, 50.93276209598582], [128.45354429612692, 50.932582252084316], [128.45397224683, 50.9324943270013], [128.45382678823484, 50.932763427418514], [128.45354218862167, 50.93276209598582]]]}}, {"id": "124", "type": "Feature", "properties": {"contour_id": "flood_0125", "area_ha": 0.06, "pair_id": "flood_2019_07_amur__belogorsk", "layer": "flood", "aoi_name": "Белогорск — река Томь", "event_name": "Паводок в Приамурье, июль 2019", "date_peak": "2019-07-25"}, "geometry": {"type": "Polygon", "coordinates": [[[128.6070965793189, 50.89839818815192], [128.6066707423745, 50.898306827272656], [128.60724029039946, 50.898218817689134], [128.6070965793189, 50.89839818815192]]]}}, {"id": "125", "type": "Feature", "properties": {"contour_id": "flood_0126", "area_ha": 0.05, "pair_id": "flood_2019_07_amur__belogorsk", "layer": "flood", "aoi_name": "Белогорск — река Томь", "event_name": "Паводок в Приамурье, июль 2019", "date_peak": "2019-07-25"}, "geometry": {"type": "Polygon", "coordinates": [[[128.60441944670123, 50.87869509907232], [128.6042795934141, 50.878424843101705], [128.60456462914374, 50.87833588170208], [128.60441944670123, 50.87869509907232]]]}}, {"id": "126", "type": "Feature", "properties": {"contour_id": "flood_0127", "area_ha": 0.05, "pair_id": "flood_2019_07_amur__belogorsk", "layer": "flood", "aoi_name": "Белогорск — река Томь", "event_name": "Паводок в Приамурье, июль 2019", "date_peak": "2019-07-25"}, "geometry": {"type": "Polygon", "coordinates": [[[128.38477755720075, 50.94581918904472], [128.3847799310022, 50.945639347738066], [128.38520812922744, 50.94555167573233], [128.38520575708552, 50.94573151705615], [128.38477755720075, 50.94581918904472]]]}}], "name": "flood_2019_07_amur__belogorsk_flood"}